ID,UserID,Street,State,City,Zipcode
c5358841705b44178fc464f51c69e24e,d3a4ec91a50447ebb64e395e124caf40,4709 Blagden Terrace Northwest,DC,Washington,20011
76ba8f1097e64065993b58a2cc0dd8e8,cbec2ba1604540c6bef715c2168a686d,6404 West 82nd Drive,CO,Arvada,80003
4a39018eab044a52a47b3c7da06f647e,cddbba926c834defb8a4e38418995e3e,2042 High Street,CA,Oakland,94601
072be0f5597c45cd91aff81af90c5802,af5d515cef0c4ce3bbbb2d10b0fba17e,919 Windsor Avenue,MD,Annapolis,21403
0a55350ffd514f6dadaf184354885887,13752736db77427c8ef7cc9ab5820a09,6145 East Castro Valley Boulevard,CA,Castro Valley,94552
84f1cbf71d3543c7a259e0df1a98ca39,b06efb9160aa4169b7f7a95adc7cbd75,2802 US Highway 98,FL,Mexico Beach,32456
dbca682dccbb47618db6c4df83b95ad4,f3cbf5c878a84a60b76982c5ee67a8ec,3164 West Woodfield Way,AR,Fayetteville,72704
153c9c6f8dfb44faa56b2a4590d9f00d,5fccaf3603a8494991d5ce52d81eb4a1,2347 Glen Eagle Drive,KY,Northfield,40222
bf9f73af3cfc45eb94af3df153606ecc,5787c922551f42e0a8daafd22e6f45ac,3579 2nd Avenue,MD,Edgewater,21037
cd27186a476e41e4802db8012b199814,4d55a836c2d8452c845a13e78509f76d,1559 Alabama Avenue Southeast,DC,Washington,20032
67529e7f21864c3884e01a9c7f0a1db2,0242da41f40743feb0be0bbcf7f20e28,3215 Madsen Street,CA,Hayward,94541
bc11b14ab49f467f8ce518284220a04e,19c59919282a48bbb8ccaeccf8518819,6404 West 82nd Drive,CO,Arvada,80003
50d0b772a66e422e8698ef476c38552a,9d0c4e22d0e14723bef42ce2ee2f9a4b,1332 Maple Street,AL,Montgomery,36108
9b73986bdd9a476cb697dbc9b6e4ccbb,1dbc897a7d7c4addb8f016b6b0b52016,7250 Urban Drive,CO,Arvada,80005
f0fb5a63fff34a23ab60084fffd1da74,492074a46e544425a518bf63e969e641,2405 230th Street,MD,Pasadena,21122
9c458bd8a2914bf696fadfdd814cf692,917373a53d1843e9b71d55c73783718c,1537 Northwest 123rd Street,OK,Oklahoma City,73120
34bb3fe81f3f47cc944568802071f62e,ae45935d2c2648cca788d78e2c47099f,119 Antioch Pike,TN,Nashville,37211
e1d0254515c94a3dad467ad6e25029f6,d180ac3415504f59b45a9303ea9a93f2,327 Idlewylde Drive,KY,Louisville,40206
44c6895d76764486a4c61730b5e372b8,6cde8808b6844129b92cc198cd15dc59,10723 Colonial Woods Court,KY,Louisville,40223
a934b07ecd7a42c989a17e093209786c,4e69fed2079b43338df7bcfdcd5dbf12,3164 West Woodfield Way,AR,Fayetteville,72704
afa2ff8e6dd74dc597ad5320b32de5eb,9ae5e4b473ae41eb8f1505757ff1abd4,1332 Maple Street,AL,Montgomery,36108
0aa70aa31ef141579573965113c6a1bb,9f67fa6bba344d3496df77caccad9bec,4755 Coventry Road,AL,Montgomery,36116
85f03e0f5e7a47a89ca0bbd5e703c743,6b47cde262ad4a28a0f5f59fb9a4ecdb,8502 Madrone Avenue,KY,Louisville,40258
388c2affe598452bbdf38ca35ceeeb04,53c83c6c2fc94bd4808a17dee7200a01,119 Oakland Street,CT,Manchester,06042
752e307322cf46ae91ed0f86deaa80c1,2ce38d2b7d664be1aa0620cf9543b80c,10 Dalry Lane,GA,Savannah,31419
3c6d5499f2544299962427300e26e7c4,0803769377e2448ab8fa94efa75e9a5f,150 Carter Street,CT,Manchester,06040
734aee225cf844e594e86f7169e286e9,4ada24d9918a41a8a7bc1228a4ebd1a4,8219 Minor Lane,KY,Louisville,40219
c27012a65e294d38aef6e06726ab14af,d23598ff2775404a91cf0fe24d6132da,153 Atlantic Avenue,MA,Salisbury,01952
8611c5aa30cd48feb195cf6bd33b3233,a28dda36052f4cb78f18b06c58d2fe5a,58 Rice Street Southwest,DC,Washington,20032
a5431be91e9f4b139979be24b8a7ae53,19cfb14b7666463f918dba5505095f7e,1011 Devon Drive,CA,Hayward,94542
b8e5cc43d9d3422d8c3caedcb4a11414,257568f21a1b45c7b73c256b72ed733d,189 Dalton Avenue,MA,Pittsfield,01201
c9c4da2a94224618b2c59e80d33c3a91,c88d3939c67a40519fb54afbb9ffb294,119 Matthew Lane,TN,Nashville,37215
eccbad8f0e7143c999ccfa851fb45e18,e65cb2b5c17e49c49d767d0765f63155,2201 Marks Mill Lane,AR,Fayetteville,72703
79f0984d3018404d9d28e9c07557f695,48527c4463324a1695cf279b694115ff,589 East Main Street,VT,Newport,05855
64452d7dc8274355a893f738c217814c,04dd5da123994cb8863c54826ecd67f3,3466 Southview Avenue,AL,Montgomery,36111
508245bc4a084fad895c482c94dcfd7e,2ff0fdbec0e341178ee2d2a19abb3e89,5104 West Tierra Buena Lane,AZ,Glendale,85306
4564d6a537b2472a8be05bbea4c3f665,92ab683f7805420e8314c4e33f500037,1157 1st Street Northwest,DC,Washington,20001
2f85aac8692949f0915966505f97e0fe,a1360a55ef65403fa8fcc1295a103030,1613 Maple Timber Court,TN,Nashville,37013
21877629033144aa882dfcc84f3a16b7,977cc84fdca34c0c817f7e9830d9db7b,6483 West 76th Avenue,CO,Arvada,80003
33ed5e579f534ab291920f7ff7b40969,e6ee356041d34299aca9cf809cf43b4d,2024 Merrily Drive,AL,Montgomery,36111
8e87ba84222c4654a05fbdfdb5a74b70,e3f8a81b26c9427fa17a40bd70b95ed3,9331 Edison Road,FL,Lithia,33547
e554b77c40aa4e4ba0c9e1491e8c8714,92ef9fc26a0640cdb2f7f98f582ce658,125 John Street,CA,Santa Cruz,95060
ab86b1a07c4d4980be80e383b33acc2f,2dbcf462c6c74ef8a8edfbb3f236dacd,105 Gilmore Street,MD,Glen Burnie,21061
033827cbcb704176bbebab05afffc62d,3744dd51a32b45eeb7632d0050810874,1418 Paddocks Court,MD,Crownsville,21032
20fa380824db4063be3c03a148867e57,be94d37f2e0b422a886b46250c185b15,5906 Milton Avenue,MD,Deale,20751
d3d4c72b9eab4a3199a6a30053a6dd07,402a4754e6d0405f97d6af00d64e14f8,3313 Daisy Trail,TN,Nashville,37013
f3a3d9a99c2e4c718844dba48f8b8b6e,b2159fec6d4e40a9920aaff14fd3a540,831 21st Street Northeast,DC,Washington,20002
fb121e89c5ba4fc58bdd7ca26c4c821a,9a7848eef30046edbbb6680d5fca2ec1,210 Lacross Lane,VT,Westmore,05860
f98ebd97228b4f89804602a5141e6a83,8e82253ff3d84d30840c3de77abeba32,2201 Marks Mill Lane,AR,Fayetteville,72703
44d0de5f1d174cd5a2e66589b17e47a4,346ef9c853514e90a22488deab6d6a4d,1720 Quacco Road,GA,Pooler,31322
dbdd08136384410fa0a2dcbdbb36dcd0,0523b6e04a824999bc920e5942341446,3219 Lakeshore Drive,TN,Nashville,37138
0c024195a3814f78b993853fe839b0fb,63c348103dd54aa6b53f21a08d6eda9c,12420 West Montebello Avenue,AZ,Litchfield Park,85340
5c715defd65949c5806c9379c6ecad5f,ee10b0e8346a4a0d990668fd1155fbc2,5306 Ritchie Highway,MD,Baltimore,21225
4f52bf3652fe47e8a3297fbe679ffd3e,05bf209f16b34232ab3d686138873c65,2130 Loren Circle,AR,Fayetteville,72701
73629524774d45b1976955754fc0ed20,ce67243afd6347dfaa21d0a992c9169a,8398 West Denton Lane,AZ,Glendale,85305
4c5e8cd2581649da93cb73d71ceb5cba,0c83b2bc719b41658a4523c78eb39bd0,8 Kozera Avenue,MA,Hadley,01035
d39b90748017498a94e27789e8a322a7,70aba72a73974a50a43be93671334943,309 Brooke Court,FL,Panama City,32404
eef0049991244e588d3a5c15e9a0638d,8a7d9f57f24a4cbf9e38e3939d4ba175,7 Maple Hill Road,MA,Aquinnah,02535
ff5c862fefae4771b89c42ff5cd1e202,b1f23a3e59bd4128a843fd64f152af23,2931 Shady Oaks Drive,CO,Evans,80620
b88ee2eee93f4bc395a9a8a9b291329b,cddf17ef4bf64328b235dfc989313364,8262 Elvaton Road,MD,Millersville,21108
ff7834e8a4f6428d919c36ebcb6dbdcc,533ca01191404161914f4d1758bd9141,2201 Marks Mill Lane,AR,Fayetteville,72703
3053bf6fab26400792daf44644027f60,edc54cc901b1450e990e4f100dfc2892,6729 North 54th Avenue,AZ,Glendale,85301
f2be32d1c53f410d8aa93dfe3d1842b0,c5d87379cbe04e8f8f901308655354ce,1208 Lindenwood Drive,FL,Panama City,32405
7bc2f87da6574792a714f535181be214,496ccde167444bbf932a4881322b6c6e,88 Shute Street,MA,Everett,02149
03fe22f8c10d44c2bafb5862c2149c56,3999f2fb6cf343e3b85a5736f85b6833,700 Winston Place,AK,Anchorage,99504
d9ae6691573d4cbc9d0dd801961fcdb0,a08be733daf84f34953e91dd08671af2,2961 Vinson Road,AL,Montgomery,36110
c44dca4f906b4ffaa795248e9a8c1654,74a1c6f04c1141aba520d11776063aad,8467 Chase Drive,CO,Arvada,80003
939ed6e8ed0a4e6f858b99a820c36e02,e4d43c755d8d4138acaa33297f05ca35,7404 West Crest Lane,AZ,Glendale,85310
93a4c76fb9a54607a0bd2dffc7bdc9b9,25a48f68084a43faacca3da46e33b4e5,7772 West Palmaire Avenue,AZ,Glendale,85303
28e1a4501e5f468983ebc2a92608e7a8,d506421f2a71475caf71f4001018fec4,8700 Seaton Boulevard,AL,Montgomery,36116
9a85c1d3e3c84b228e6dd1095117cb6f,a1973c3ceaa74f7094a1f9b76ed74bd6,1653 Brooks Avenue,AR,Fayetteville,72701
c0062d63ae84498fb28ca52f4d173fad,a14dfdac760542b0b43e5475d7e51ee3,2747 68th Avenue,CA,Oakland,94605
e55a4e39391d47d7ba396d4d501a96c1,04d878e89d3e4f0896096f3f9090b61f,19 Heritage,CA,Oakland,94605
87f07c4eb2ab4b59b980fd75208988c7,196bff691eaa427d8f72800bf48ec828,80 North East Street,MA,Holyoke,01040
4ca69ef5efea4b8da81d7beaa58ccc1d,98b5ef5cbfc645d8a8ebbf5bc1526da6,355 Gillette Road,TN,Nashville,37211
1c88903e6c5545a9b73da65fa7656a41,8375e15642c44c109f54887d550dee49,6231 North 59th Avenue,AZ,Glendale,85301
02f8af760ea841148f0abafc8d598b32,3a2df463da40416ea1b3cefc16639977,3321 Furman Boulevard,KY,Louisville,40220
414e16988bb64bd28482fcf168062a75,9199237c3df845c09769ca46e856d383,6021 Yarrow Street,CO,Arvada,80004
1da5ace122194e2d99c39807cb84d53a,ea6c1ae3a8cc46eda2e805636c7cff4f,2755 Country Drive,CA,Fremont,94536
083496ccac034281b1383264f04eb604,7d4c53f904264453b60c94a8801b9de6,116 Queens Lane,TN,Nashville,37218
6e4a7e989d014f48aa70fd2cfb5899d1,cfb1b225a2244a8ab2b5003c291e474b,26563 Chisholm Court,CA,Hayward,94544
9a04ded83c6047db94f529de594f2f33,dc865e2a17624c798978838f14b02813,6725 Pamela Court,AL,Montgomery,36116
e8fc6e94af034286b56e1d7b16799cdc,fece5b64b4204e55b2a6ef64b22647d5,620 Oakland Avenue,AR,Fayetteville,72701
323575ba1615495f8b05fd1a1ff7f3df,e699b0ef438643abb102494c13d15f8e,3620 Colmar Drive,KY,Louisville,40211
6c8085320da840ce81cf87a39390e71b,10bf08876a5a4a7d94d66e6778e8b31d,150 Carter Street,CT,Manchester,06040
7be461fe64f2415ea5c3e9abf297a146,87720f42843b44e893868d3719349d85,646 Clinton Street,AL,Montgomery,36108
252e7633e6c84308bed69e227f7c2674,933361e81c3d4fb7a20363e68a4aee45,125 13th Street Northeast,DC,Washington,20002
997566f12c504f3184b766443dad2104,60e8f5a2dad44dd08919bb482cd1bd23,643 Farragut Street Northwest,DC,Washington,20011
0a723e2e52a646f8bc9748a768081040,4f563d0fe06e47a89edc787e7f302982,1328 Jenks Avenue,FL,Panama City,32401
aa0ff8714962459eb77d96c0f0c9ad74,3420fa79a69043918cf708b7dd3db307,12022 Town Park Circle,AK,Anchorage,99577
3b9661f87be94ced9216db561b451cba,4bbbacd5247d4a90b4a14cc218d42a73,4927 Alvin Sperry Road,TN,Mount Juliet,37122
c44dd19bf61a46fa8d984ff6a593fbfd,b335e3fb81b8451992f8916b771480d2,2931 Shady Oaks Drive,CO,Evans,80620
b056d0bbb0614f59b416c73b3d020f98,4a26b660124a4a809c312608cf292a30,403 Turkey Creek Road,AL,Mathews,36052
e91031a2a4b347079c13be871fc4f489,e2d94ad1a8394e13a9bf448deee6d391,6823 Forsythe Drive,FL,Panama City,32404
35a115439ae545fa8c1ad74a58741957,1ba88811319f4596a143441d23ac9571,2433 Southwest 36th Street,OK,Oklahoma City,73109
d0cd048c88b74f02827b5898d075d8a9,eab389f5163e43a4a78352cc7a03c940,8522 Ingalls Circle,CO,Arvada,80003
50d4a98c508d46f1bc97baf9c4e1dd75,c369c525343d4b278368cf27c952c169,60 Downey Drive,CT,Manchester,06040
708e898108334197acffc9b869c2765e,bbd9d7fba0434376ac30bdcbe6ca3f40,555 North Dupont Avenue,TN,Nashville,37115
9f46429cfd74461bbb850dfe384b98e4,77f2badfccef4abab6369b0848cd8594,8404 South Villa Avenue,OK,Oklahoma City,73159
3693ca7f924d4b81bcd0f5a65196afed,fe3545e51919414293bac6fd6a1a63bd,1330 West 82nd Avenue,AK,Anchorage,99518
